start=new Date('2021-08-27T00:00:00.000Z').valueOf();
sats=[{"ARG_OF_PERICENTER":"166.1676","ECCENTRICITY":"0.00007560","FILE":"3103463","GP_ID":"183473963","MEAN_ANOMALY":"193.9334","SITE":"AFETR","MEAN_MOTION_DDOT":"0.0000000000000","ELEMENT_SET_NO":"999","NORAD_CAT_ID":"48307","MEAN_MOTION_DOT":"-0.00000544","EPOCH":"2021-08-26T13:16:18.236640","OBJECT_TYPE":"PAYLOAD","DECAY_DATE":null,"TLE_LINE1":"1 48307U 21036AH  21238.55298885 -.00000544  00000-0 -17656-4 0  9994","MEAN_ELEMENT_THEORY":"SGP4","SEMIMAJOR_AXIS":"6925.361","LAUNCH_DATE":"2021-04-29","CLASSIFICATION_TYPE":"U","TLE_LINE2":"2 48307  53.0561 326.2940 0000756 166.1676 193.9334 15.06396096 18557","RCS_SIZE":"LARGE","REF_FRAME":"TEME","EPHEMERIS_TYPE":"0","APOAPSIS":"547.749","PERIOD":"95.592","INCLINATION":"53.0561","OBJECT_NAME":"STARLINK-2528","COUNTRY_CODE":"US","TIME_SYSTEM":"UTC","OBJECT_ID":"2021-036AH","BSTAR":"-0.00001765600000","REV_AT_EPOCH":"1855","RA_OF_ASC_NODE":"326.2940","MEAN_MOTION":"15.06396096","CENTER_NAME":"EARTH","PERIAPSIS":"546.702"},{"CENTER_NAME":"EARTH","PERIAPSIS":"546.716","MEAN_MOTION":"15.06403136","RA_OF_ASC_NODE":"326.3130","BSTAR":"0.00008538700000","REV_AT_EPOCH":"1855","OBJECT_ID":"2021-036AJ","TIME_SYSTEM":"UTC","COUNTRY_CODE":"US","OBJECT_NAME":"STARLINK-2532","INCLINATION":"53.0566","PERIOD":"95.592","EPHEMERIS_TYPE":"0","APOAPSIS":"547.691","RCS_SIZE":"LARGE","REF_FRAME":"TEME","CLASSIFICATION_TYPE":"U","TLE_LINE2":"2 48308  53.0566 326.3130 0000704 157.2376 202.8645 15.06403136 18555","SEMIMAJOR_AXIS":"6925.339","LAUNCH_DATE":"2021-04-29","MEAN_ELEMENT_THEORY":"SGP4","TLE_LINE1":"1 48308U 21036AJ  21238.54929579  .00000991  00000-0  85387-4 0  9995","DECAY_DATE":null,"OBJECT_TYPE":"PAYLOAD","EPOCH":"2021-08-26T13:10:59.156256","MEAN_MOTION_DOT":"0.00000991","NORAD_CAT_ID":"48308","MEAN_MOTION_DDOT":"0.0000000000000","ELEMENT_SET_NO":"999","FILE":"3103463","MEAN_ANOMALY":"202.8645","GP_ID":"183474215","SITE":"AFETR","ARG_OF_PERICENTER":"157.2376","ECCENTRICITY":"0.00007040"},{"RA_OF_ASC_NODE":"326.3365","MEAN_MOTION":"15.06394407","CENTER_NAME":"EARTH","PERIAPSIS":"546.596","OBJECT_NAME":"STARLINK-2517","INCLINATION":"53.0581","COUNTRY_CODE":"US","OBJECT_ID":"2021-036AK","TIME_SYSTEM":"UTC","BSTAR":"-0.00003334000000","REV_AT_EPOCH":"1855","MEAN_ELEMENT_THEORY":"SGP4","TLE_LINE1":"1 48309U 21036AK  21238.54561844 -.00000778  00000-0 -33340-4 0  9990","SEMIMAJOR_AXIS":"6925.366","LAUNCH_DATE":"2021-04-29","RCS_SIZE":"LARGE","REF_FRAME":"TEME","TLE_LINE2":"2 48309  53.0581 326.3365 0000916 128.2002 231.9069 15.06394407 18555","CLASSIFICATION_TYPE":"U","PERIOD":"95.592","EPHEMERIS_TYPE":"0","APOAPSIS":"547.865","FILE":"3103463","MEAN_ANOMALY":"231.9069","GP_ID":"183474965","SITE":"AFETR","ARG_OF_PERICENTER":"128.2002","ECCENTRICITY":"0.00009160","NORAD_CAT_ID":"48309","MEAN_MOTION_DDOT":"0.0000000000000","ELEMENT_SET_NO":"999","EPOCH":"2021-08-26T13:05:41.433216","MEAN_MOTION_DOT":"-0.00000778","DECAY_DATE":null,"OBJECT_TYPE":"PAYLOAD"},{"RA_OF_ASC_NODE":"326.3439","CENTER_NAME":"EARTH","PERIAPSIS":"546.727","MEAN_MOTION":"15.06394550","COUNTRY_CODE":"US","OBJECT_NAME":"STARLINK-2536","INCLINATION":"53.0559","BSTAR":"-0.00004965900000","REV_AT_EPOCH":"1855","OBJECT_ID":"2021-036AL","TIME_SYSTEM":"UTC","SEMIMAJOR_AXIS":"6925.365","LAUNCH_DATE":"2021-04-29","MEAN_ELEMENT_THEORY":"SGP4","TLE_LINE1":"1 48310U 21036AL  21238.54193071 -.00001021  00000-0 -49659-4 0  9997","PERIOD":"95.592","EPHEMERIS_TYPE":"0","APOAPSIS":"547.733","RCS_SIZE":"LARGE","REF_FRAME":"TEME","CLASSIFICATION_TYPE":"U","TLE_LINE2":"2 48310  53.0559 326.3439 0000726 142.0739 218.0301 15.06394550 18558","NORAD_CAT_ID":"48310","ELEMENT_SET_NO":"999","MEAN_MOTION_DDOT":"0.0000000000000","FILE":"3103463","SITE":"AFETR","GP_ID":"183474712","MEAN_ANOMALY":"218.0301","ARG_OF_PERICENTER":"142.0739","ECCENTRICITY":"0.00007260","DECAY_DATE":null,"OBJECT_TYPE":"PAYLOAD","EPOCH":"2021-08-26T13:00:22.813344","MEAN_MOTION_DOT":"-0.00001021"},{"RA_OF_ASC_NODE":"326.3648","PERIAPSIS":"546.724","CENTER_NAME":"EARTH","MEAN_MOTION":"15.06391164","COUNTRY_CODE":"US","INCLINATION":"53.0568","OBJECT_NAME":"STARLINK-2534","REV_AT_EPOCH":"1855","BSTAR":"0.00008263700000","TIME_SYSTEM":"UTC","OBJECT_ID":"2021-036AM","LAUNCH_DATE":"2021-04-29","SEMIMAJOR_AXIS":"6925.376","MEAN_ELEMENT_THEORY":"SGP4","TLE_LINE1":"1 48311U 21036AM  21238.53824534  .00000950  00000-0  82637-4 0  9993","APOAPSIS":"547.757","EPHEMERIS_TYPE":"0","PERIOD":"95.593","TLE_LINE2":"2 48311  53.0568 326.3648 0000746 126.4607 233.6451 15.06391164 18550","CLASSIFICATION_TYPE":"U","REF_FRAME":"TEME","RCS_SIZE":"LARGE","ELEMENT_SET_NO":"999","MEAN_MOTION_DDOT":"0.0000000000000","NORAD_CAT_ID":"48311","ECCENTRICITY":"0.00007460","ARG_OF_PERICENTER":"126.4607","MEAN_ANOMALY":"233.6451","GP_ID":"183473464","SITE":"AFETR","FILE":"3103463","OBJECT_TYPE":"PAYLOAD","DECAY_DATE":null,"MEAN_MOTION_DOT":"0.00000950","EPOCH":"2021-08-26T12:55:04.397376"},{"OBJECT_TYPE":"PAYLOAD","DECAY_DATE":null,"MEAN_MOTION_DOT":"0.00000935","EPOCH":"2021-08-26T12:49:46.284672","ELEMENT_SET_NO":"999","MEAN_MOTION_DDOT":"0.0000000000000","NORAD_CAT_ID":"48312","ARG_OF_PERICENTER":"130.1567","ECCENTRICITY":"0.00007760","FILE":"3103463","SITE":"AFETR","GP_ID":"183474715","MEAN_ANOMALY":"229.9490","EPHEMERIS_TYPE":"0","APOAPSIS":"547.754","PERIOD":"95.592","CLASSIFICATION_TYPE":"U","TLE_LINE2":"2 48312  53.0574 326.3846 0000776 130.1567 229.9490 15.06398984 18556","RCS_SIZE":"LARGE","REF_FRAME":"TEME","SEMIMAJOR_AXIS":"6925.352","LAUNCH_DATE":"2021-04-29","MEAN_ELEMENT_THEORY":"SGP4","TLE_LINE1":"1 48312U 21036AN  21238.53456348  .00000935  00000-0  81666-4 0  9992","BSTAR":"0.00008166600000","REV_AT_EPOCH":"1855","TIME_SYSTEM":"UTC","OBJECT_ID":"2021-036AN","COUNTRY_CODE":"US","INCLINATION":"53.0574","OBJECT_NAME":"STARLINK-2061","CENTER_NAME":"EARTH","PERIAPSIS":"546.679","MEAN_MOTION":"15.06398984","RA_OF_ASC_NODE":"326.3846"},{"LAUNCH_DATE":"2021-04-29","SEMIMAJOR_AXIS":"6925.365","TLE_LINE1":"1 48313U 21036AP  21238.53088942  .00001523  00000-0  12113-3 0  9998","MEAN_ELEMENT_THEORY":"SGP4","PERIOD":"95.592","APOAPSIS":"547.806","EPHEMERIS_TYPE":"0","REF_FRAME":"TEME","RCS_SIZE":"LARGE","TLE_LINE2":"2 48313  53.0585 326.4065 0000831 147.5760 212.5280 15.06394493 18547","CLASSIFICATION_TYPE":"U","NORAD_CAT_ID":"48313","MEAN_MOTION_DDOT":"0.0000000000000","ELEMENT_SET_NO":"999","MEAN_ANOMALY":"212.5280","GP_ID":"183474466","SITE":"AFETR","FILE":"3103463","ECCENTRICITY":"0.00008310","ARG_OF_PERICENTER":"147.5760","DECAY_DATE":null,"OBJECT_TYPE":"PAYLOAD","EPOCH":"2021-08-26T12:44:28.845888","MEAN_MOTION_DOT":"0.00001523","RA_OF_ASC_NODE":"326.4065","PERIAPSIS":"546.655","CENTER_NAME":"EARTH","MEAN_MOTION":"15.06394493","COUNTRY_CODE":"US","OBJECT_NAME":"STARLINK-2541","INCLINATION":"53.0585","REV_AT_EPOCH":"1854","BSTAR":"0.00012113000000","OBJECT_ID":"2021-036AP","TIME_SYSTEM":"UTC"},{"FILE":"3103463","MEAN_ANOMALY":"203.7592","GP_ID":"183475212","SITE":"AFETR","ARG_OF_PERICENTER":"156.3441","ECCENTRICITY":"0.00009630","NORAD_CAT_ID":"48314","MEAN_MOTION_DDOT":"0.0000000000000","ELEMENT_SET_NO":"999","EPOCH":"2021-08-26T12:39:08.539488","MEAN_MOTION_DOT":"-0.00000842","DECAY_DATE":null,"OBJECT_TYPE":"PAYLOAD","TLE_LINE1":"1 48314U 21036AQ  21238.52718217 -.00000842  00000-0 -37648-4 0  9999","MEAN_ELEMENT_THEORY":"SGP4","SEMIMAJOR_AXIS":"6925.358","LAUNCH_DATE":"2021-04-29","RCS_SIZE":"LARGE","REF_FRAME":"TEME","CLASSIFICATION_TYPE":"U","TLE_LINE2":"2 48314  53.0582 326.4226 0000963 156.3441 203.7592 15.06396834 18543","PERIOD":"95.592","EPHEMERIS_TYPE":"0","APOAPSIS":"547.890","OBJECT_NAME":"STARLINK-2549","INCLINATION":"53.0582","COUNTRY_CODE":"US","OBJECT_ID":"2021-036AQ","TIME_SYSTEM":"UTC","BSTAR":"-0.00003764800000","REV_AT_EPOCH":"1854","RA_OF_ASC_NODE":"326.4226","MEAN_MOTION":"15.06396834","CENTER_NAME":"EARTH","PERIAPSIS":"546.556"},{"MEAN_MOTION":"15.06395560","CENTER_NAME":"EARTH","PERIAPSIS":"546.425","RA_OF_ASC_NODE":"326.4383","OBJECT_ID":"2021-036AR","TIME_SYSTEM":"UTC","BSTAR":"0.00009675600000","REV_AT_EPOCH":"1854","OBJECT_NAME":"STARLINK-2506","INCLINATION":"53.0563","COUNTRY_CODE":"US","RCS_SIZE":"LARGE","REF_FRAME":"TEME","TLE_LINE2":"2 48315  53.0563 326.4383 0001158 134.4060 225.7024 15.06395560 18547","CLASSIFICATION_TYPE":"U","PERIOD":"95.592","EPHEMERIS_TYPE":"0","APOAPSIS":"548.029","MEAN_ELEMENT_THEORY":"SGP4","TLE_LINE1":"1 48315U 21036AR  21238.52351286  .00001160  00000-0  96756-4 0  9996","SEMIMAJOR_AXIS":"6925.362","LAUNCH_DATE":"2021-04-29","EPOCH":"2021-08-26T12:33:51.511104","MEAN_MOTION_DOT":"0.00001160","DECAY_DATE":null,"OBJECT_TYPE":"PAYLOAD","FILE":"3103463","GP_ID":"183473964","SITE":"AFETR","MEAN_ANOMALY":"225.7024","ARG_OF_PERICENTER":"134.4060","ECCENTRICITY":"0.00011580","NORAD_CAT_ID":"48315","ELEMENT_SET_NO":"999","MEAN_MOTION_DDOT":"0.0000000000000"},{"INCLINATION":"53.0604","OBJECT_NAME":"STARLINK-2507","COUNTRY_CODE":"US","TIME_SYSTEM":"UTC","OBJECT_ID":"2021-036AS","REV_AT_EPOCH":"1854","BSTAR":"-0.00004038800000","RA_OF_ASC_NODE":"326.4423","MEAN_MOTION":"15.06394087","PERIAPSIS":"546.684","CENTER_NAME":"EARTH","ECCENTRICITY":"0.00007910","ARG_OF_PERICENTER":"128.5269","MEAN_ANOMALY":"231.5791","GP_ID":"183474216","SITE":"AFETR","FILE":"3103463","MEAN_MOTION_DDOT":"0.0000000000000","ELEMENT_SET_NO":"999","NORAD_CAT_ID":"48316","MEAN_MOTION_DOT":"-0.00000883","EPOCH":"2021-08-26T12:28:31.802592","OBJECT_TYPE":"PAYLOAD","DECAY_DATE":null,"TLE_LINE1":"1 48316U 21036AS  21238.51981253 -.00000883  00000-0 -40388-4 0  9992","MEAN_ELEMENT_THEORY":"SGP4","LAUNCH_DATE":"2021-04-29","SEMIMAJOR_AXIS":"6925.367","TLE_LINE2":"2 48316  53.0604 326.4423 0000791 128.5269 231.5791 15.06394087 18545","CLASSIFICATION_TYPE":"U","REF_FRAME":"TEME","RCS_SIZE":"LARGE","APOAPSIS":"547.779","EPHEMERIS_TYPE":"0","PERIOD":"95.593"}];
